IRIDIUM 68 [+]          
1 25291U 98021G   18039.34838418  .00000168  00000-0  52910-4 0  9995
2 25291  86.3982 125.3605 0002128  98.5270 261.6167 14.34224659 38856
IRIDIUM 69 [-]          
1 25319U 98026A   18039.44793815  .00000075  00000-0  17931-4 0  9994
2 25319  86.4033 146.3860 0002068 153.0479 207.0827 14.38714118 37003
IRIDIUM 71 [-]          
1 25320U 98026B   18039.37024140  .00000065  00000-0  14421-4 0  9996
2 25320  86.4013 142.1960 0000468  24.1337 335.9884 14.39132180 37436
IRIDIUM 70 [+]          
1 25342U 98032A   18039.30392035  .00000171  00000-0  54099-4 0  9994
2 25342  86.3986 125.6323 0002082  93.7527 266.3907 14.34217249 32943
IRIDIUM 72 [+]          
1 25343U 98032B   18039.36099657  .00000142  00000-0  43694-4 0  9992
2 25343  86.3980 125.2047 0002095  96.0578 264.0856 14.34217688 32959
IRIDIUM 73 [-]          
1 25344U 98032C   18039.51565236  .00000103  00000-0  21613-4 0  9995
2 25344  86.4418 103.1151 0002281  78.3243 281.8217 14.49093766 41770
IRIDIUM 75 [+]          
1 25346U 98032E   18039.36734634  .00000164  00000-0  51460-4 0  9990
2 25346  86.3983 125.4628 0002154  97.0024 263.1417 14.34217278 33527
IRIDIUM 3 [P]           
1 25431U 98048A   18039.68901606  .15407232 -13618-5  14806-3 0  9992
2 25431  86.3557 154.9265 0051746 279.7408  80.8369 16.45548534 19776
IRIDIUM 76 [+]          
1 25432U 98048B   18039.37087459  .00000148  00000-0  45886-4 0  9997
2 25432  86.4004 156.7797 0002179  92.4513 267.6932 14.34218307 19441
IRIDIUM 82 [-]          
1 25467U 98051A   18039.55134101  .00000622  00000-0  45245-4 0  9992
2 25467  86.3989 272.6606 0179691 268.6432  89.4205 14.89722534 22021
IRIDIUM 81 [+]          
1 25468U 98051B   18039.17748486  .00000119  00000-0  32419-4 0  9998
2 25468  86.4225 283.1722 0002285  84.7663 275.3796 14.38612677 16775
IRIDIUM 80 [+]          
1 25469U 98051C   18039.29066222  .00000108  00000-0  31657-4 0  9994
2 25469  86.3953 283.3812 0001620 102.4450  35.4851 14.34222532 16678
IRIDIUM 2 [-]           
1 25527U 98066A   18039.55942809  .00000757  00000-0  36226-4 0  9995
2 25527  85.5277 252.6445 0007150 311.9514  48.1116 15.17171693 53709
IRIDIUM 86 [+]          
1 25528U 98066B   18039.13998606 -.00000066  00000-0 -30631-4 0  9995
2 25528  86.3929 251.1151 0001082  66.4755 293.6555 14.34218924 13187
IRIDIUM 84 [+]          
1 25530U 98066D   18039.10193484 -.00000070  00000-0 -31963-4 0  9990
2 25530  86.3931 251.2998 0001979  83.8065 276.3357 14.34219094 10819
IRIDIUM 83 [+]          
1 25531U 98066E   18039.48249917 -.00000073  00000-0 -32957-4 0  9992
2 25531  86.3933 251.2759 0001982  85.9520 274.1902 14.34217609  8224
IRIDIUM 20 [+]          
1 25577U 98074A   18039.40254376  .00000150  00000-0  46513-4 0  9995
2 25577  86.4004 156.6850 0002042  96.4672 263.6757 14.34218895  2297
IRIDIUM 11 [+]          
1 25578U 98074B   18038.83100146  .00000111  00000-0  32408-4 0  9992
2 25578  86.4009 157.1363 0002750  90.5346  69.0550 14.34219955 11171
IRIDIUM 14 [+]          
1 25777U 99032A   18039.31660165  .00000162  00000-0  50885-4 0  9999
2 25777  86.3983 125.3118 0002048  94.6729 265.4701 14.34217555988523
IRIDIUM 21 [+]          
1 25778U 99032B   18039.49419801  .00000145  00000-0  44819-4 0  9999
2 25778  86.3981 125.2533 0002284  95.5975 264.5481 14.34217406981980
IRIDIUM 91 [+]          
1 27372U 02005A   18039.32340312  .00000070  00000-0  17871-4 0  9992
2 27372  86.3993 188.4797 0001996  81.8339 278.3083 14.34218151845471
IRIDIUM 90 [B]          
1 27373U 02005B   18039.10787841 -.00000071  00000-0 -27435-4 0  9991
2 27373  86.4444 251.4260 0001930  80.4454 279.6965 14.42948471845377
IRIDIUM 94 [+]          
1 27374U 02005C   18039.44252729  .00000156  00000-0  48627-4 0  9999
2 27374  86.4004 157.0035 0002202  80.9656 322.0585 14.34221858849811
IRIDIUM 95 [+]          
1 27375U 02005D   18039.50111414  .00000060  00000-0  14527-4 0  9998
2 27375  86.3990 188.4191 0002686  80.8370 279.3129 14.34212491844786
IRIDIUM 96 [P]          
1 27376U 02005E   18039.53769203  .00016784 -99568-6  19056-3 0  9992
2 27376  86.3817 217.4317 0317909 339.0193  19.8236 15.19190156850394
IRIDIUM 97 [+]          
1 27450U 02031A   18039.47274143 -.00000061  00000-0 -28822-4 0  9992
2 27450  86.3956 220.1226 0001896  83.5660 276.5752 14.34213462824091
IRIDIUM 98 [+]          
1 27451U 02031B   18039.27029849  .00000118  00000-0  35174-4 0  9991
2 27451  86.3946 283.4703 0001569  81.0581 279.0792 14.34222729825140
